#cV2020  2 23  0  0  0.00000000    5041   SLR  ECEF FIT  ASI
## 2094      0.00000000   120.00000000 58902 0.0000000000000
+    1   L51  0  0  0  0  0  0  0  0  0  0  0  0  0  0  0  0
+          0  0  0  0  0  0  0  0  0  0  0  0  0  0  0  0  0
+          0  0  0  0  0  0  0  0  0  0  0  0  0  0  0  0  0
+          0  0  0  0  0  0  0  0  0  0  0  0  0  0  0  0  0
+          0  0  0  0  0  0  0  0  0  0  0  0  0  0  0  0  0
++         0  0  0  0  0  0  0  0  0  0  0  0  0  0  0  0  0
++         0  0  0  0  0  0  0  0  0  0  0  0  0  0  0  0  0
++         0  0  0  0  0  0  0  0  0  0  0  0  0  0  0  0  0
++         0  0  0  0  0  0  0  0  0  0  0  0  0  0  0  0  0
++         0  0  0  0  0  0  0  0  0  0  0  0  0  0  0  0  0
%c L  cc UTC ccc cccc cccc cccc cccc ccccc ccccc ccccc ccccc
%c cc cc ccc ccc cccc cccc cccc cccc ccccc ccccc ccccc ccccc
%f  0.0000000  0.000000000  0.00000000000  0.000000000000000
%f  0.0000000  0.000000000  0.00000000000  0.000000000000000
%i    0    0    0    0      0      0      0      0         0
%i    0    0    0    0      0      0      0      0         0
/* For a generic SP3c orbit file "asi.orb.yymmdd.v#.sp3c"   
/*                    the reference system is SLRF2008      
/*                                                          
/*                                                          
*  2020  2 29  7 12  0.00000000
PL51  11245.958180   4875.816621   -921.613087 999999.999999
VL51   7820.134840 -27453.408854 -53378.950982 999999.999999
*  2020  2 29  7 14  0.00000000
PL51  11319.878479   4538.489240  -1560.405102 999999.999999
VL51   4493.441551 -28743.834390 -53058.982426 999999.999999
*  2020  2 29  7 16  0.00000000
PL51  11353.670610   4186.548730  -2194.373792 999999.999999
VL51   1134.211083 -29888.249104 -52575.313247 999999.999999
*  2020  2 29  7 18  0.00000000
PL51  11347.020129   3821.770399  -2821.564733 999999.999999
VL51  -2244.870551 -30882.902754 -51929.689702 999999.999999
*  2020  2 29  7 20  0.00000000
PL51  11299.765400   3445.970480  -3440.047400 999999.999999
VL51  -5631.030145 -31724.725998 -51124.347008 999999.999999
*  2020  2 29  7 22  0.00000000
PL51  11211.898338   3060.997915  -4047.920975 999999.999999
VL51  -9011.457087 -32411.338051 -50161.999322 999999.999999
*  2020  2 29  7 24  0.00000000
PL51  11083.564563   2668.726058  -4643.320026 999999.999999
VL51 -12373.352895 -32941.051358 -49045.828394 999999.999999
*  2020  2 29  7 26  0.00000000
PL51  10915.062957   2271.044344  -5224.420048 999999.999999
VL51 -15703.980311 -33312.873291 -47779.470974 999999.999999
*  2020  2 29  7 28  0.00000000
PL51  10706.844641   1869.849955  -5789.442835 999999.999999
VL51 -18990.711760 -33526.504924 -46367.005044 999999.999999
*  2020  2 29  7 30  0.00000000
PL51  10459.511368   1467.039518  -6336.661694 999999.999999
VL51 -22221.077008 -33582.336949 -44812.934974 999999.999999
*  2020  2 29  7 32  0.00000000
PL51  10173.813357   1064.500867  -6864.406462 999999.999999
VL51 -25382.809834 -33481.442807 -43122.175672 999999.999999
*  2020  2 29  7 34  0.00000000
PL51   9850.646569    664.104901  -7371.068335 999999.999999
VL51 -28463.893588 -33225.569113 -41300.035824 999999.999999
*  2020  2 29  7 36  0.00000000
PL51   9491.049445    267.697586  -7855.104489 999999.999999
VL51 -31452.605473 -32817.123470 -39352.200303 999999.999999
*  2020  2 29  7 38  0.00000000
PL51   9096.199122   -122.907902  -8315.042483 999999.999999
VL51 -34337.559436 -32259.159766 -37284.711819 999999.999999
*  2020  2 29  7 40  0.00000000
PL51   8667.407140   -505.938823  -8749.484442 999999.999999
VL51 -37107.747562 -31555.361073 -35103.951900 999999.999999
*  2020  2 29  7 42  0.00000000
PL51   8206.114667   -879.670316  -9157.111004 999999.999999
VL51 -39752.579848 -30710.020241 -32816.621253 999999.999999
*  2020  2 29  7 44  0.00000000
PL51   7713.887252  -1242.432585  -9536.685029 999999.999999
VL51 -42261.922280 -29728.018301 -30429.719591 999999.999999
*  2020  2 29  7 46  0.00000000
PL51   7192.409132  -1592.617817  -9887.055066 999999.999999
VL51 -44626.133124 -28614.800805 -27950.524968 999999.999999
*  2020  2 29  7 48  0.00000000
PL51   6643.477121  -1928.686807 -10207.158565 999999.999999
VL51 -46836.097349 -27376.352200 -25386.572690 999999.999999
*  2020  2 29  7 50  0.00000000
PL51   6068.994087  -2249.175260 -10496.024835 999999.999999
VL51 -48883.259126 -26019.168364 -22745.633842 999999.999999
*  2020  2 29  7 52  0.00000000
PL51   5470.962061  -2552.699755 -10752.777744 999999.999999
VL51 -50759.652334 -24550.227418 -20035.693493 999999.999999
*  2020  2 29  7 54  0.00000000
PL51   4851.474986  -2837.963348 -10976.638157 999999.999999
VL51 -52457.929019 -22976.958931 -17264.928590 999999.999999
*  2020  2 29  7 56  0.00000000
PL51   4212.711137  -3103.760798 -11166.926098 999999.999999
VL51 -53971.385765 -21307.211632 -14441.685607 999999.999999
*  2020  2 29  7 58  0.00000000
PL51   3556.925242  -3348.983397 -11323.062656 999999.999999
VL51 -55293.987930 -19549.219745 -11574.457945 999999.999999
*  2020  2 29  8  0  0.00000000
PL51   2886.440319  -3572.623387 -11444.571607 999999.999999
VL51 -56420.391690 -17711.568062  -8671.863137 999999.999999
*  2020  2 29  8  2  0.00000000
PL51   2203.639269  -3773.777948 -11531.080767 999999.999999
VL51 -57345.963868 -15803.155854  -5742.619849 999999.999999
*  2020  2 29  8  4  0.00000000
PL51   1510.956236  -3951.652756 -11582.323069 999999.999999
VL51 -58066.799486 -13833.159747  -2795.524723 999999.999999
*  2020  2 29  8  6  0.00000000
PL51    810.867778  -4105.565079 -11598.137355 999999.999999
VL51 -58579.737019 -11810.995663    160.570937 999999.999999
*  2020  2 29  8  8  0.00000000
PL51    105.883867  -4234.946420 -11578.468895 999999.999999
VL51 -58882.371292  -9746.279939   3116.784605 999999.999999
*  2020  2 29  8 10  0.00000000
PL51   -601.461259  -4339.344680 -11523.369617 999999.999999
VL51 -58973.063999  -7648.789745   6064.226090 999999.999999
*  2020  2 29  8 12  0.00000000
PL51  -1308.618342  -4418.425853 -11432.998061 999999.999999
VL51 -58850.951799  -5528.422900   8994.021196 999999.999999
*  2020  2 29  8 14  0.00000000
PL51  -2013.032443  -4471.975225 -11307.619042 999999.999999
VL51 -58515.951955  -3395.157210  11897.335456 999999.999999
*  2020  2 29  8 16  0.00000000
PL51  -2712.152333  -4499.898094 -11147.603031 999999.999999
VL51 -57968.765475  -1259.009442  14765.397938 999999.999999
*  2020  2 29  8 18  0.00000000
PL51  -3403.439901  -4502.219984 -10953.425250 999999.999999
VL51 -57210.877732    870.005960  17589.525099 999999.999999
*  2020  2 29  8 20  0.00000000
PL51  -4084.379557  -4479.086372 -10725.664479 999999.999999
VL51 -56244.556496   2981.918274  20361.144666 999999.999999
*  2020  2 29  8 22  0.00000000
PL51  -4752.487598  -4430.761914 -10465.001581 999999.999999
VL51 -55072.847368   5066.841924  23071.819521 999999.999999
*  2020  2 29  8 24  0.00000000
PL51  -5405.321502  -4357.629177 -10172.217730 999999.999999
VL51 -53699.566560   7115.017773  25713.271558 999999.999999
*  2020  2 29  8 26  0.00000000
PL51  -6040.489113  -4260.186871  -9848.192366 999999.999999
VL51 -52129.290990   9116.854166  28277.405469 999999.999999
*  2020  2 29  8 28  0.00000000
PL51  -6655.657705  -4139.047600  -9493.900860 999999.999999
VL51 -50367.345658  11062.967588  30756.332428 999999.999999
*  2020  2 29  8 30  0.00000000
PL51  -7248.562862  -3994.935118  -9110.411888 999999.999999
VL51 -48419.788280  12944.222784  33142.393604 999999.999999
*  2020  2 29  8 32  0.00000000
PL51  -7817.017169  -3828.681118  -8698.884539 999999.999999
VL51 -46293.391157  14751.772205  35428.183456 999999.999999
*  2020  2 29  8 34  0.00000000
PL51  -8358.918662  -3641.221540  -8260.565131 999999.999999
VL51 -43995.620278  16477.094615  37606.572738 999999.999999
*  2020  2 29  8 36  0.00000000
PL51  -8872.259015  -3433.592436  -7796.783764 999999.999999
VL51 -41534.611643  18112.032709  39670.731157 999999.999999
*  2020  2 29  8 38  0.00000000
PL51  -9355.131423  -3206.925377  -7308.950593 999999.999999
VL51 -38919.144821  19648.829576  41614.149576 999999.999999
*  2020  2 29  8 40  0.00000000
PL51  -9805.738153  -2962.442438  -6798.551852 999999.999999
VL51 -36158.613775  21080.163850  43430.661712 999999.999999
*  2020  2 29  8 42  0.00000000
PL51 -10222.397727  -2701.450770  -6267.145602 999999.999999
VL51 -33262.994979  22399.183363  45114.465213 999999.999999
*  2020  2 29  8 44  0.00000000
PL51 -10603.551709  -2425.336771  -5716.357251 999999.999999
VL51 -30242.812875  23599.537152  46660.142024 999999.999999
*  2020  2 29  8 46  0.00000000
PL51 -10947.771059  -2135.559894  -5147.874818 999999.999999
VL51 -27109.102762  24675.405632  48062.677953 999999.999999
*  2020  2 29  8 48  0.00000000
PL51 -11253.762030  -1833.646095  -4563.443974 999999.999999
VL51 -23873.371169  25621.528775  49317.481311 999999.999999
*  2020  2 29  8 50  0.00000000
PL51 -11520.371571  -1521.180964  -3964.862868 999999.999999
VL51 -20547.553852  26433.232127  50420.400536 999999.999999
*  2020  2 29  8 52  0.00000000
PL51 -11746.592215  -1199.802549  -3353.976745 999999.999999
VL51 -17143.971505  27106.450495  51367.740689 999999.999999
*  2020  2 29  8 54  0.00000000
PL51 -11931.566424   -871.193918  -2732.672370 999999.999999
VL51 -13675.283354  27637.749153  52156.278702 999999.999999
*  2020  2 29  8 56  0.00000000
PL51 -12074.590357   -537.075480  -2102.872285 999999.999999
VL51 -10154.438787  28024.342411  52783.277285 999999.999999
*  2020  2 29  8 58  0.00000000
PL51 -12175.117061   -199.197097  -1466.528901 999999.999999
VL51  -6594.627202  28264.109414  53246.497373 999999.999999
*  2020  2 29  9  0  0.00000000
PL51 -12232.759034    140.669975   -825.618455 999999.999999
VL51  -3009.226285  28355.607037  53544.209031 999999.999999
*  2020  2 29  9  2  0.00000000
PL51 -12247.290175    480.741279   -182.134839 999999.999999
VL51    588.251066  28298.079763  53675.200704 999999.999999
EOF
